NORAD_CAT_ID,OBJECT_NAME,OBJECT_TYPE,EPOCH,MEAN_MOTION,ECCENTRICITY,INCLINATION,RA_OF_ASC_NODE,ARG_OF_PERICENTER,MEAN_ANOMALY,BSTAR,MEAN_MOTION_DOT,MEAN_MOTION_DDOT,TLE_LINE0,TLE_LINE1,TLE_LINE2,SEMIMAJOR_AXIS,PERIOD,APOGEE,PERIGEE,DECAYED
53981.0,STARLINK-5149,PAYLOAD,2023-11-01 14:30:19,15.08837843,0.0001657,53.2179,100.4793,110.1531,249.964,0.00015561,2.189e-05,0.0,0 STARLINK-5149,1 53981U 22125T   23305.60438867  .00002189  00000-0  15561-3 0  9994,2 53981  53.2179 100.4793 0001657 110.1531 249.9640 15.08837843 59915,6917.887,95.438,540.898,538.606,0.0
53981.0,STARLINK-5149,PAYLOAD,2023-11-01 19:16:28,15.08838734,0.0001316,53.2175,99.5881,83.0506,277.0635,0.00010635,1.405e-05,0.0,0 STARLINK-5149,1 53981U 22125T   23305.80311066  .00001405  00000-0  10635-3 0  9994,2 53981  53.2175  99.5881 0001316  83.0506 277.0635 15.08838734 59948,6917.884,95.438,540.66,538.839,0.0
53981.0,STARLINK-5149,PAYLOAD,2023-11-02 14:21:06,15.08842478,0.0001815,53.2181,96.0205,83.5694,276.5504,4.7237e-06,-2.13e-06,0.0,0 STARLINK-5149,1 53981U 22125T   23306.59799315 -.00000213  00000-0  47237-5 0  9995,2 53981  53.2181  96.0205 0001815  83.5694 276.5504 15.08842478 60068,6917.873,95.437,540.993,538.482,0.0
53981.0,STARLINK-5149,PAYLOAD,2023-11-02 20:42:38,15.08848156,0.0001329,53.2178,94.8301,88.9729,271.1416,8.8131e-05,1.115e-05,0.0,0 STARLINK-5149,1 53981U 22125T   23306.86294582  .00001115  00000-0  88131-4 0  9999,2 53981  53.2178  94.8301 0001329  88.9729 271.1416 15.08848156 60179,6917.855,95.437,540.64,538.801,0.0
53981.0,STARLINK-5149,PAYLOAD,2023-11-03 09:25:44,15.08834062,0.0001292,53.218,92.4486,106.8701,253.2433,0.00010181,1.333e-05,0.0,0 STARLINK-5149,1 53981U 22125T   23307.39287489  .00001333  00000-0  10181-3 0  9997,2 53981  53.2180  92.4486 0001292 106.8701 253.2433 15.08834062 60259,6917.899,95.438,540.657,538.87,0.0
53981.0,STARLINK-5149,PAYLOAD,2023-11-03 14:11:53,15.08841351,0.0001653,53.2175,91.5584,105.3805,254.737,0.00014314,1.991e-05,0.0,0 STARLINK-5149,1 53981U 22125T   23307.59159014  .00001991  00000-0  14314-3 0  9993,2 53981  53.2175  91.5584 0001653 105.3805 254.7370 15.08841351 60213,6917.876,95.437,540.885,538.598,0.0
53981.0,STARLINK-5149,PAYLOAD,2023-11-03 17:22:39,15.08844358,0.0001485,53.2176,90.9643,99.8959,260.2201,0.00013324,1.833e-05,0.0,0 STARLINK-5149,1 53981U 22125T   23307.72406914  .00001833  00000-0  13324-3 0  9997,2 53981  53.2176  90.9643 0001485  99.8959 260.2201 15.08844358 60308,6917.867,95.437,540.759,538.705,0.0
53981.0,STARLINK-5149,PAYLOAD,2023-11-04 09:16:31,15.088386,0.0001463,53.2185,87.9957,79.159,280.9567,7.9057e-05,9.7e-06,0.0,0 STARLINK-5149,1 53981U 22125T   23308.38647594  .00000970  00000-0  79057-4 0  9998,2 53981  53.2185  87.9957 0001463  79.1590 280.9567 15.08838600 60408,6917.885,95.438,540.762,538.738,0.0
53981.0,STARLINK-5149,PAYLOAD,2023-11-04 14:02:41,15.08837587,0.0001519,53.2185,87.1025,78.4139,281.7023,6.6169e-05,7.65e-06,0.0,0 STARLINK-5149,1 53981U 22125T   23308.58519758  .00000765  00000-0  66169-4 0  9992,2 53981  53.2185  87.1025 0001519  78.4139 281.7023 15.08837587 60363,6917.888,95.438,540.804,538.702,0.0
53981.0,STARLINK-5149,PAYLOAD,2023-11-04 15:38:04,15.08843584,0.0001537,53.2186,86.8054,82.2447,277.8719,-8.3368e-06,-4.21e-06,0.0,0 STARLINK-5149,1 53981U 22125T   23308.65143585 -.00000421  00000-0 -83368-5 0  9993,2 53981  53.2186  86.8054 0001537  82.2447 277.8719 15.08843584 60370,6917.869,95.437,540.798,538.671,0.0
53981.0,STARLINK-5149,PAYLOAD,2023-11-05 12:18:04,15.08849678,0.0001543,53.2189,82.9378,94.337,265.7799,0.00014117,1.96e-05,0.0,0 STARLINK-5149,1 53981U 22125T   23309.51254661  .00001960  00000-0  14117-3 0  9998,2 53981  53.2189  82.9378 0001543  94.3370 265.7799 15.08849678 60571,6917.851,95.437,540.783,538.648,0.0
53981.0,STARLINK-5149,PAYLOAD,2023-11-05 13:53:27,15.08850402,0.0001631,53.2186,82.6413,81.9395,278.1782,0.00022188,3.246e-05,0.0,0 STARLINK-5149,1 53981U 22125T   23309.57878929  .00003246  00000-0  22188-3 0  9999,2 53981  53.2186  82.6413 0001631  81.9395 278.1782 15.08850402 60513,6917.849,95.437,540.842,538.585,0.0
53981.0,STARLINK-5149,PAYLOAD,2023-11-05 15:28:50,15.08855218,0.0001508,53.218,82.342,95.7922,264.3242,0.00025624,3.794e-05,0.0,0 STARLINK-5149,1 53981U 22125T   23309.64502564  .00003794  00000-0  25624-3 0  9992,2 53981  53.2180  82.3420 0001508  95.7922 264.3242 15.08855218 60523,6917.834,95.437,540.742,538.656,0.0
53981.0,STARLINK-5149,PAYLOAD,2023-11-06 12:08:51,15.08832533,0.0001071,53.2184,78.4764,71.7805,288.3304,-0.00024807,-4.233e-05,0.0,0 STARLINK-5149,1 53981U 22125T   23310.50614680 -.00004233  00000-0 -24807-3 0  9995,2 53981  53.2184  78.4764 0001071  71.7805 288.3304 15.08832533 60725,6917.903,95.438,540.509,539.027,0.0
53981.0,STARLINK-5149,PAYLOAD,2023-11-06 13:44:15,15.08808377,0.0001579,53.2182,78.1793,108.4922,251.6242,-0.00070327,-0.00011453,0.0,0 STARLINK-5149,1 53981U 22125T   23310.57239824 -.00011453  00000-0 -70327-3 0  9995,2 53981  53.2182  78.1793 0001579 108.4922 251.6242 15.08808377 60669,6917.977,95.44,540.934,538.75,0.0
53981.0,STARLINK-5149,PAYLOAD,2023-11-06 15:19:38,15.08807155,0.0001367,53.2178,77.8823,93.9335,266.1814,-0.00068207,-0.00011117,0.0,0 STARLINK-5149,1 53981U 22125T   23310.63864030 -.00011117  00000-0 -68207-3 0  9996,2 53981  53.2178  77.8823 0001367  93.9335 266.1814 15.08807155 60743,6917.981,95.44,540.791,538.9,0.0
53981.0,STARLINK-5149,PAYLOAD,2023-11-07 11:59:40,15.08822627,0.0001363,53.2182,74.016,89.4199,270.6949,1.7786e-05,-5e-08,0.0,0 STARLINK-5149,1 53981U 22125T   23311.49976933 -.00000005  00000-0  17786-4 0  9997,2 53981  53.2182  74.0160 0001363  89.4199 270.6949 15.08822627 60879,6917.933,95.439,540.741,538.856,0.0
53981.0,STARLINK-5149,PAYLOAD,2023-11-07 15:10:26,15.08828595,0.0001396,53.2184,73.4257,90.1456,269.9696,-0.00011708,-2.15e-05,0.0,0 STARLINK-5149,1 53981U 22125T   23311.63224913 -.00002150  00000-0 -11708-3 0  9998,2 53981  53.2184  73.4257 0001396  90.1456 269.9696 15.08828595 60827,6917.915,95.438,540.746,538.815,0.0
53981.0,STARLINK-5149,PAYLOAD,2023-11-08 00:42:45,15.08835252,0.0001373,53.2179,71.6372,82.1304,277.9844,1.9326e-05,2e-07,0.0,0 STARLINK-5149,1 53981U 22125T   23312.02968831  .00000020  00000-0  19326-4 0  9993,2 53981  53.2179  71.6372 0001373  82.1304 277.9844 15.08835252 60953,6917.895,95.438,540.71,538.81,0.0
53981.0,STARLINK-5149,PAYLOAD,2023-11-08 13:25:49,15.08844716,0.0001128,53.2173,69.2568,71.7191,288.3924,0.00055614,8.575e-05,0.0,0 STARLINK-5149,1 53981U 22125T   23312.55960551  .00008575  00000-0  55614-3 0  9994,2 53981  53.2173  69.2568 0001128  71.7191 288.3924 15.08844716 60964,6917.866,95.437,540.511,538.951,0.0
53981.0,STARLINK-5149,PAYLOAD,2023-11-09 00:33:32,15.08839347,0.0001211,53.2169,67.1775,67.2547,292.8573,0.00054933,8.465e-05,0.0,0 STARLINK-5149,1 53981U 22125T   23313.02329002  .00008465  00000-0  54933-3 0  9998,2 53981  53.2169  67.1775 0001211  67.2547 292.8573 15.08839347 61105,6917.882,95.438,540.585,538.91,0.0
53981.0,STARLINK-5149,PAYLOAD,2023-11-09 13:16:37,15.08839379,0.0001337,53.2192,64.8016,86.1514,273.9631,0.00018548,2.665e-05,0.0,0 STARLINK-5149,1 53981U 22125T   23313.55321035  .00002665  00000-0  18548-3 0  9992,2 53981  53.2192  64.8016 0001337  86.1514 273.9631 15.08839379 61117,6917.882,95.438,540.672,538.822,0.0
53981.0,STARLINK-5149,PAYLOAD,2023-11-09 14:52:00,15.08841083,0.0001273,53.22,64.5044,83.972,276.1417,0.00020408,2.962e-05,0.0,0 STARLINK-5149,1 53981U 22125T   23313.61944772  .00002962  00000-0  20408-3 0  9996,2 53981  53.2200  64.5044 0001273  83.9720 276.1417 15.08841083 61121,6917.877,95.437,540.623,538.861,0.0
53981.0,STARLINK-5149,PAYLOAD,2023-11-10 00:24:19,15.0884294,0.0001203,53.2193,62.7191,83.9912,276.1217,8.2965e-05,1.033e-05,0.0,0 STARLINK-5149,1 53981U 22125T   23314.01688719  .00001033  00000-0  82965-4 0  9992,2 53981  53.2193  62.7191 0001203  83.9912 276.1217 15.08842940 61256,6917.871,95.437,540.569,538.904,0.0
53981.0,STARLINK-5149,PAYLOAD,2023-11-10 14:42:47,15.08849054,0.0001458,53.2188,60.0412,73.8128,286.3025,-4.0855e-05,-9.38e-06,0.0,0 STARLINK-5149,1 53981U 22125T   23314.61304594 -.00000938  00000-0 -40855-4 0  9991,2 53981  53.2188  60.0412 0001458  73.8128 286.3025 15.08849054 61271,6917.853,95.437,540.726,538.709,0.0
53981.0,STARLINK-5149,PAYLOAD,2023-11-11 11:22:48,15.08840497,0.00015,53.2197,56.1776,85.6458,274.4705,4.2293e-05,3.85e-06,0.0,0 STARLINK-5149,1 53981U 22125T   23315.47416743  .00000385  00000-0  42293-4 0  9998,2 53981  53.2197  56.1776 0001500  85.6458 274.4705 15.08840497 61472,6917.879,95.438,540.782,538.706,0.0
53981.0,STARLINK-5149,PAYLOAD,2023-11-11 14:33:33,15.08877186,0.0001648,53.2196,55.5831,100.442,259.6758,-0.00046568,-7.699e-05,0.0,0 STARLINK-5149,1 53981U 22125T   23315.60663296 -.00007699  00000-0 -46568-3 0  9995,2 53981  53.2196  55.5831 0001648 100.4420 259.6758 15.08877186 61427,6917.767,95.435,540.772,538.492,0.0
53981.0,STARLINK-5149,PAYLOAD,2023-11-12 00:05:53,15.08838701,0.0001491,53.22,53.7969,83.9708,276.1454,2.2162e-05,6.5e-07,0.0,0 STARLINK-5149,1 53981U 22125T   23316.00408756  .00000065  00000-0  22162-4 0  9991,2 53981  53.2200  53.7969 0001491  83.9708 276.1454 15.08838701 61556,6917.884,95.438,540.781,538.718,0.0
53981.0,STARLINK-5149,PAYLOAD,2023-11-12 12:48:58,15.08843929,0.000144,53.2189,51.4171,89.6089,270.5068,3.0571e-05,1.99e-06,0.0,0 STARLINK-5149,1 53981U 22125T   23316.53400519  .00000199  00000-0  30571-4 0  9999,2 53981  53.2189  51.4171 0001440  89.6089 270.5068 15.08843929 61569,6917.868,95.437,540.73,538.737,0.0
53981.0,STARLINK-5149,PAYLOAD,2023-11-12 15:59:44,15.08847727,0.000153,53.2194,50.8209,90.2443,269.8725,6.5252e-05,7.51e-06,0.0,0 STARLINK-5149,1 53981U 22125T   23316.66648156  .00000751  00000-0  65252-4 0  9992,2 53981  53.2194  50.8209 0001530  90.2443 269.8725 15.08847727 61653,6917.857,95.437,540.78,538.663,0.0
